H1 CPF  1  DGF 2022 11 01 11  8051 larets     NONE      
H2   304206 5557    27944 2022 10 06 00 00 00 2022 10 13 00 00 00    30 1 1  0 0 0
H5  0.0650
H9
10 0 59859  39600.000000  0      -3653671.249      -2905044.125       5296119.378
10 0 59859  39630.000000  0      -3559005.891      -2754892.016       5438868.330
10 0 59859  39660.000000  0      -3460076.261      -2602375.065       5576071.877
10 0 59859  39690.000000  0      -3356973.196      -2447666.603       5707591.215
10 0 59859  39720.000000  0      -3249792.477      -2290941.713       5833293.374
10 0 59859  39750.000000  0      -3138634.728      -2132377.023       5953051.352
10 0 59859  39780.000000  0      -3023605.324      -1972150.511       6066744.230
10 0 59859  39810.000000  0      -2904814.286      -1810441.295       6174257.293
10 0 59859  39840.000000  0      -2782376.170      -1647429.439       6275482.136
10 0 59859  39870.000000  0      -2656409.952      -1483295.744       6370316.772
10 0 59859  39900.000000  0      -2527038.913      -1318221.548       6458665.724
10 0 59859  39930.000000  0      -2394390.504      -1152388.524       6540440.116
10 0 59859  39960.000000  0      -2258596.223       -985978.478       6615557.752
10 0 59859  39990.000000  0      -2119791.477       -819173.149       6683943.186
10 0 59859  40020.000000  0      -1978115.444       -652154.018       6745527.790
10 0 59859  40050.000000  0      -1833710.937       -485102.108       6800249.812
10 0 59859  40080.000000  0      -1686724.257       -318197.800       6848054.432
10 0 59859  40110.000000  0      -1537305.051       -151620.634       6888893.815
10 0 59859  40140.000000  0      -1385606.155         14450.876       6922727.152
10 0 59859  40170.000000  0      -1231783.442        179839.437       6949520.703
10 0 59859  40200.000000  0      -1075995.662        344369.161       6969247.820
10 0 59859  40230.000000  0       -918404.276        507865.752       6981888.978
10 0 59859  40260.000000  0       -759173.294        670156.685       6987431.786
10 0 59859  40290.000000  0       -598469.100        831071.394       6985870.997
10 0 59859  40320.000000  0       -436460.286        990441.438       6977208.516
10 0 59859  40350.000000  0       -273317.473       1148100.684       6961453.395
10 0 59859  40380.000000  0       -109213.136       1303885.476       6938621.822
10 0 59859  40410.000000  0         55678.580       1457634.803       6908737.112
10 0 59859  40440.000000  0        221182.042       1609190.467       6871829.673
10 0 59859  40470.000000  0        387120.315       1758397.240       6827936.983
10 0 59859  40500.000000  0        553315.349       1905103.025       6777103.547
10 0 59859  40530.000000  0        719588.164       2049159.005       6719380.858
10 0 59859  40560.000000  0        885759.044       2190419.794       6654827.349
10 0 59859  40590.000000  0       1051647.728       2328743.582       6583508.337
10 0 59859  40620.000000  0       1217073.602       2463992.280       6505495.963
10 0 59859  40650.000000  0       1381855.894       2596031.651       6420869.120
10 0 59859  40680.000000  0       1545813.868       2724731.452       6329713.386
10 0 59859  40710.000000  0       1708767.024       2849965.559       6232120.941
10 0 59859  40740.000000  0       1870535.293       2971612.093       6128190.479
10 0 59859  40770.000000  0       2030939.233       3089553.544       6018027.119
10 0 59859  40800.000000  0       2189800.236       3203676.881       5901742.301
10 0 59859  40830.000000  0       2346940.718       3313873.668       5779453.684
10 0 59859  40860.000000  0       2502184.327       3420040.171       5651285.033
10 0 59859  40890.000000  0       2655356.140       3522077.456       5517366.096
10 0 59859  40920.000000  0       2806282.861       3619891.485       5377832.479
10 0 59859  40950.000000  0       2954793.018       3713393.206       5232825.510
10 0 59859  40980.000000  0       3100717.157       3802498.633       5082492.100
10 0 59859  41010.000000  0       3243888.034       3887128.922       4926984.602
10 0 59859  41040.000000  0       3384140.804       3967210.443       4766460.664
10 0 59859  41070.000000  0       3521313.218       4042674.848       4601083.080
10 0 59859  41100.000000  0       3655245.807       4113459.136       4431019.631
10 0 59859  41130.000000  0       3785782.068       4179505.708       4256442.922
10 0 59859  41160.000000  0       3912768.657       4240762.426       4077530.218
10 0 59859  41190.000000  0       4036055.581       4297182.654       3894463.266
10 0 59859  41220.000000  0       4155496.389       4348725.302       3707428.103
10 0 59859  41250.000000  0       4270948.343       4395354.845       3516614.860
10 0 59859  41280.000000  0       4382272.586       4437041.341       3322217.568
10 0 59859  41310.000000  0       4489334.305       4473760.454       3124433.961
10 0 59859  41340.000000  0       4592002.896       4505493.460       2923465.286
10 0 59859  41370.000000  0       4690152.127       4532227.261       2719516.101
10 0 59859  41400.000000  0       4783660.297       4553954.382       2512794.059
10 0 59859  41430.000000  0       4872410.393       4570672.963       2303509.701
10 0 59859  41460.000000  0       4956290.236       4582386.744       2091876.236
10 0 59859  41490.000000  0       5035192.625       4589105.041       1878109.322
10 0 59859  41520.000000  0       5109015.479       4590842.718       1662426.844
10 0 59859  41550.000000  0       5177661.968       4587620.152       1445048.686
10 0 59859  41580.000000  0       5241040.640       4579463.193       1226196.502
10 0 59859  41610.000000  0       5299065.540       4566403.113       1006093.485
10 0 59859  41640.000000  0       5351656.328       4548476.557        784964.130
10 0 59859  41670.000000  0       5398738.379       4525725.478        563034.000
10 0 59859  41700.000000  0       5440242.890       4498197.072        340529.492
10 0 59859  41730.000000  0       5476106.966       4465943.699        117677.596
10 0 59859  41760.000000  0       5506273.715       4429022.808       -105294.335
10 0 59859  41790.000000  0       5530692.321       4387496.848       -328158.825
10 0 59859  41820.000000  0       5549318.124       4341433.184       -550688.513
10 0 59859  41850.000000  0       5562112.686       4290903.994       -772656.390
10 0 59859  41880.000000  0       5569043.850       4235986.172       -993836.039
10 0 59859  41910.000000  0       5570085.791       4176761.213      -1214001.866
10 0 59859  41940.000000  0       5565219.062       4113315.105      -1432929.344
10 0 59859  41970.000000  0       5554430.629       4045738.210      -1650395.236
10 0 59859  42000.000000  0       5537713.906       3974125.138      -1866177.839
10 0 59859  42030.000000  0       5515068.770       3898574.620      -2080057.203
10 0 59859  42060.000000  0       5486501.579       3819189.379      -2291815.367
10 0 59859  42090.000000  0       5452025.179       3736075.991      -2501236.579
10 0 59859  42120.000000  0       5411658.904       3649344.748      -2708107.523
10 0 59859  42150.000000  0       5365428.566       3559109.511      -2912217.534
10 0 59859  42180.000000  0       5313366.442       3465487.567      -3113358.821
10 0 59859  42210.000000  0       5255511.252       3368599.476      -3311326.674
10 0 59859  42240.000000  0       5191908.130       3268568.919      -3505919.678
10 0 59859  42270.000000  0       5122608.581       3165522.542      -3696939.921
10 0 59859  42300.000000  0       5047670.444       3059589.794      -3884193.196
10 0 59859  42330.000000  0       4967157.828       2950902.764      -4067489.199
10 0 59859  42360.000000  0       4881141.060       2839596.009      -4246641.723
10 0 59859  42390.000000  0       4789696.613       2725806.392      -4421468.835
10 0 59859  42420.000000  0       4692907.034       2609672.909      -4591793.064
10 0 59859  42450.000000  0       4590860.867       2491336.524      -4757441.575
10 0 59859  42480.000000  0       4483652.565       2370939.993      -4918246.341
10 0 59859  42510.000000  0       4371382.399       2248627.697      -5074044.310
10 0 59859  42540.000000  0       4254156.353       2124545.462      -5224677.566
10 0 59859  42570.000000  0       4132086.025       1998840.391      -5369993.482
10 0 59859  42600.000000  0       4005288.511       1871660.685      -5509844.868
10 0 59859  42630.000000  0       3873886.291       1743155.472      -5644090.119
10 0 59859  42660.000000  0       3738007.105       1613474.635      -5772593.347
10 0 59859  42690.000000  0       3597783.823       1482768.632      -5895224.523
10 0 59859  42720.000000  0       3453354.308       1351188.326      -6011859.592
10 0 59859  42750.000000  0       3304861.277       1218884.810      -6122380.598
10 0 59859  42780.000000  0       3152452.155       1086009.232      -6226675.790
10 0 59859  42810.000000  0       2996278.930        952712.627      -6324639.728
10 0 59859  42840.000000  0       2836497.994        819145.747      -6416173.384
10 0 59859  42870.000000  0       2673269.990        685458.895      -6501184.239
10 0 59859  42900.000000  0       2506759.643        551801.752      -6579586.361
10 0 59859  42930.000000  0       2337135.597        418323.217      -6651300.493
10 0 59859  42960.000000  0       2164570.248        285171.244      -6716254.124
10 0 59859  42990.000000  0       1989239.572        152492.677      -6774381.557
10 0 59859  43020.000000  0       1811322.940         20433.090      -6825623.983
10 0 59859  43050.000000  0       1631002.939       -110863.370      -6869929.533
10 0 59859  43080.000000  0       1448465.180       -241254.143      -6907253.326
10 0 59859  43110.000000  0       1263898.101       -370598.403      -6937557.513
10 0 59859  43140.000000  0       1077492.782       -498757.217      -6960811.302
10 0 59859  43170.000000  0        889442.745       -625593.680      -6976990.995
99
